GLOBALSTAR M075         
1 37192U 10054E   24358.22106682 -.00000083  00000+0  11826-3 0  9993
2 37192  51.9967 357.3147 0000354  66.9185  13.5153 12.62270394654153
GLOBALSTAR M073         
1 37193U 10054F   24358.15653288 -.00000075  00000+0  15931-3 0  9997
2 37193  52.0064 271.1963 0000730  51.4208  95.7201 12.62261340655659
GLOBALSTAR M083         
1 37739U 11033A   24357.92258446 -.00000090  00000+0  78971-4 0  9993
2 37739  51.9838 220.8813 0000884  85.7692  17.6090 12.62269758624593
GLOBALSTAR M088         
1 37740U 11033B   24357.83049205 -.00000089  00000+0  84975-4 0  9995
2 37740  51.9720 126.7983 0000927 117.6856  47.5176 12.62266621620120
GLOBALSTAR M091         
1 37741U 11033C   24357.76560681 -.00000089  00000+0  81727-4 0  9996
2 37741  52.0003  90.2375 0000860 141.2619  27.9780 12.62271910620909
GLOBALSTAR M085         
1 37742U 11033D   24358.19945519 -.00000126  00000+0 -12546-3 0  9997
2 37742  51.9887  40.1097 0000442 151.2564 251.3882 12.62262864621960
GLOBALSTAR M081         
1 37743U 11033E   24357.61018791 -.00000086  00000+0  97990-4 0  9998
2 37743  51.9976  44.5818 0000255 171.1701 312.8791 12.62274345621548
GLOBALSTAR M089         
1 37744U 11033F   24358.19451517 -.00000084  00000+0  11019-3 0  9995
2 37744  51.9951 357.0654 0000431  33.9354  45.7410 12.62273816622719
